[{"OBJECT_NAME":"STARLINK-30463","OBJECT_ID":"2023-146U","EPOCH":"2026-03-09T02:48:56.187936","MEAN_MOTION":15.02533398,"ECCENTRICITY":0.00011113,"INCLINATION":43.004,"RA_OF_ASC_NODE":316.1563,"ARG_OF_PERICENTER":265.2503,"MEAN_ANOMALY":94.8213,"EPHEMERIS_TYPE":0,"CLASSIFICATION_TYPE":"U","NORAD_CAT_ID":57909,"ELEMENT_SET_NO":999,"REV_AT_EPOCH":13592,"BSTAR":-2.9993693e-5,"MEAN_MOTION_DOT":-6.09e-6,"MEAN_MOTION_DDOT":0},{"OBJECT_NAME":"QPS-SAR-11 (YAMATSUMI-I)","OBJECT_ID":"2025-125A","EPOCH":"2026-03-09T06:07:28.619904","MEAN_MOTION":15.00627459,"ECCENTRICITY":0.00100447,"INCLINATION":42.0098,"RA_OF_ASC_NODE":22.3823,"ARG_OF_PERICENTER":210.04,"MEAN_ANOMALY":149.985,"EPHEMERIS_TYPE":0,"CLASSIFICATION_TYPE":"U","NORAD_CAT_ID":64340,"ELEMENT_SET_NO":999,"REV_AT_EPOCH":4060,"BSTAR":0.0005738522,"MEAN_MOTION_DOT":7.204e-5,"MEAN_MOTION_DDOT":0}]
